School,Address,Latitude,Longitude
47 The American Sign Language and English Secondary School,"223 EAST 23 STREET MANHATTAN, NY 10010",40.738373,-73.981628
ACORN Community High School,"561 GRAND AVENUE BROOKLYN, NY 11238",40.678651,-73.961911
Andries Hudde,"2500 NOSTRAND AVENUE BROOKLYN, NY 11210",40.623753,-73.946487
Aspirations Diploma Plus High School,"402 EASTERN PARKWAY BROOKLYN, NY 11225",40.669717,-73.955112
Automotive High School,"50 BEDFORD AVENUE BROOKLYN, NY 11222",40.722244,-73.953291
Aviation Career & Technical Education High School,"45-30 36 STREET QUEENS, NY 11101",40.743581,-73.929218
BATTERY PARK CITY SCHOOL,"55 BATTERY PLACE MANHATTAN, NY 10280",40.706368,-74.017653
Bayside High School,"32-24 CORPORAL KENNEDY STREET QUEENS, NY 11361",40.771495,-73.780689
Benjamin N. Cardozo High School,"57-00 223RD STREET BAYSIDE, NY 11364",40.751844,-73.755909
Brighter Choice Community School,"280 HART STREET BROOKLYN, NY 11206",40.693964,-73.940769
Bronx Alliance Middle School,"3750 BAYCHESTER AVENUE BRONX, NY 10466",40.886044,-73.840577
Bronx Arena High School,"1440 STORY AVENUE BRONX, NY 10473",40.821113,-73.880582
Bronx High School for the Visual Arts,"2040 ANTIN PL BRONX, NY 10462",40.851544,-73.864696
Bronx Leadership Academy High School,"1710 WEBSTER AVENUE BRONX, NY 10457",40.843403,-73.903135
Bronx Regional High School,"1010 REV. J. A. POLITE AVENUE BRONX, NY 10459",40.825629,-73.893605
Bronx Studio School for Writers and Artists,"928 SIMPSON STREET BRONX, NY 10459",40.820451,-73.893111
Brooklyn Arbor Elementary School,"325 SOUTH 3 STREET BROOKLYN, NY 11211",40.709787,-73.954718
Brooklyn College Academy - Bridge to Brooklyn,"350 CONEY ISLAND AVENUE BROOKLYN, NY 11218",40.64918,-73.971859
Brooklyn Landmark Elementary School,"251 MAC DOUGAL STREET BROOKLYN, NY 11233",40.680456,-73.910372
Central Park East High School,"1573 MADISON AVENUE MANHATTAN, NY 10029",40.793907,-73.949097
Cobble Hill School of American Studies,"347 BALTIC STREET BROOKLYN, NY 11201",40.684568,-73.99086
College Point Collaborative,"12406 14TH AVENUE QUEENS, NY 11356",40.785234,-73.843373
Collegiate Institute for Math and Science,"925 ASTOR AVENUE BRONX, NY 10469",40.8599,-73.860322
Community Health Academy of the Heights,"504 WEST 158TH STREET MANHATTAN, NY 10032",40.833606,-73.942262
Community Voices Middle School,"145-00 SPRINGFIELD BOULEVARD QUEENS, NY 11413",40.66463,-73.759125
Crotona International High School,"2474 CROTONA AVENUE BRONX, NY 10458",40.855298,-73.882703
Curtis High School,"105 HAMILTON AVENUE STATEN ISLAND, NY 10301",40.646002,-74.082823
EAST NEW YORK ELEMENTARY SCHOOL OF EXCELLENCE,"605 SHEPHERD AVENUE BROOKLYN, NY 11208",40.669482,-73.879457
Eagle Academy for Young Men,"4143 THIRD AVENUE BRONX, NY 10457",40.845256,-73.897071
East Flatbush Community Research School,"905 WINTHROP STREET BROOKLYN, NY 11203",40.658644,-73.928571
"Elementary School for Math, Science, and Technology","125 EAST 181 STREET BRONX, NY 10453",40.855024,-73.90336
Evergreen M.S. for Urban Exploration,"125 COVERT STREET BROOKLYN, NY 11207",40.688805,-73.910047
Eximius College Preparatory Academy: A College Board School,"1363 FULTON AVENUE BRONX, NY 10456",40.833861,-73.902511
Expeditionary Learning School for Community Leaders,"2630 BENSON AVENUE BROOKLYN, NY 11214",40.593992,-73.985748
Fairmont Neighborhood School,"1550 VYSE AVENUE BRONX, NY 10460",40.834283,-73.88725
Fannie Lou Hamer Freedom High School,"1021 JENNINGS STREET BRONX, NY 10460",40.83093,-73.886116
Fort Hamilton High School,"8301 SHORE ROAD BROOKLYN, NY 11209",40.627236,-74.039738
Franklin Delano Roosevelt High School,"5800 20 AVENUE BROOKLYN, NY 11204",40.591132,-73.983367
Frederick Douglass Academy,"2581 7TH AVENUE MANHATTAN, NY 10039",40.823921,-73.937305
GRANT AVENUE ELEMENTARY SCHOOL,"250 EAST 164 STREET BRONX, NY 10456",40.828333,-73.917277
Goldie Maple Academy,"3-65 BEACH 56 STREET QUEENS, NY 11692",40.592532,-73.785879
"Gregory Jocko Jackson School of Sports, Art and Technology (The)","213 OSBORN STREET BROOKLYN, NY 11212",40.667022,-73.907987
Harlem Renaissance High School,"22 EAST 128 STREET MANHATTAN, NY 10035",40.807816,-73.939912
Harry S Truman High School,"750 BAYCHESTER AVENUE BRONX, NY 10475",40.874114,-73.833119
High School for Environmental Studies,"444 WEST 56 STREET MANHATTAN, NY 10019",40.767928,-73.988097
"High School for Law, Advocacy and Community Justice","122 AMSTERDAM AVENUE MANHATTAN, NY 10023",40.774469,-73.984959
High School for Public Service: Heroes of Tomorrow,"600 KINGSTON AVENUE BROOKLYN, NY 11203",40.658815,-73.942978
High School of World Cultures,"1300 BOYNTON AVENUE BRONX, NY 10472",40.831814,-73.878702
Hillcrest High School,"160-05 HIGHLAND AVENUE QUEENS, NY 11432",40.709264,-73.802174
I.S. 024 Myra S. Barnes,"750 DURANT AVENUE STATEN ISLAND, NY 10308",40.545711,-74.146009
I.S. 027 Anning S. Prall,"11 CLOVE LAKE PLACE STATEN ISLAND, NY 10310",40.628294,-74.117066
I.S. 059 Springfield Gardens,"132-55 RIDGEDALE STREET QUEENS, NY 11413",40.682017,-73.753133
I.S. 061 Leonardo Da Vinci,"98-50 50 AVENUE QUEENS, NY 11368",40.742626,-73.862756
I.S. 068 Isaac Bildersee,"956 EAST 82 STREET BROOKLYN, NY 11236",40.635281,-73.910731
I.S. 072 Rocco Laurie,"33 FERNDALE AVENUE STATEN ISLAND, NY 10314",40.592757,-74.158633
I.S. 093 Ridgewood,"66-56 FOREST AVENUE QUEENS, NY 11385",40.705855,-73.902827
I.S. 117 Joseph H. Wade,"1865 MORRIS AVENUE BRONX, NY 10453",40.848605,-73.908568
I.S. 125 Thom J. McCann Woodside,"46-02 47 AVENUE QUEENS, NY 11377",40.740919,-73.918688
I.S. 136 Charles O. Dewey,"4004 4 AVENUE BROOKLYN, NY 11232",40.654686,-74.011323
I.S. 141 The Steinway,"37-11 21 AVENUE QUEENS, NY 11105",40.775564,-73.904739
I.S. 171 Abraham Lincoln,"528 RIDGEWOOD AVENUE BROOKLYN, NY 11208",40.686042,-73.869468
I.S. 211 John Wilson,"1001 EAST 100 STREET BROOKLYN, NY 11236",40.642933,-73.895605
I.S. 219 New Venture School,"3630 THIRD AVENUE BRONX, NY 10456",40.833781,-73.904118
I.S. 228 David A. Boody,"228 AVENUE S BROOKLYN, NY 11223",40.601113,-73.976772
I.S. 229 Roland Patterson,"275 HARLEM RIVER PARK BRIDGE BRONX, NY 10453",40.852635,-73.92127
I.S. 237,"46-21 COLDEN STREET QUEENS, NY 11355",40.7493,-73.821548
I.S. 238 - Susan B. Anthony Academy,"88-15 182 STREET QUEENS, NY 11423",40.712772,-73.780173
I.S. 281 Joseph B Cavallaro,"8787 24 AVENUE BROOKLYN, NY 11214",40.595213,-73.97443
I.S. 285 Meyer Levin,"5909 BEVERLY ROAD BROOKLYN, NY 11203",40.647075,-73.92071
I.S. 30 Mary White Ovington,"7002 4TH AVENUE BROOKLYN, NY 11209",40.633472,-74.024209
I.S. 303 Herbert S. Eisenberg,"501 WEST AVENUE BROOKLYN, NY 11224",40.582219,-73.972478
I.S. 318 Eugenio Maria De Hostos,"101 WALTON STREET BROOKLYN, NY 11206",40.703136,-73.948139
I.S. 340,"227 STERLING PLACE BROOKLYN, NY 11238",40.676104,-73.969848
I.S. 347 School of Humanities,"35 STARR STREET BROOKLYN, NY 11221",40.700259,-73.928096
I.S. 49 Berta A. Dreyfus,"101 WARREN STREET STATEN ISLAND, NY 10304",40.620549,-74.081526
I.S. 528 Bea Fuller Rodgers School,"180 WADSWORTH AVENUE MANHATTAN, NY 10033",40.850649,-73.934557
I.S. 98 Bay Academy,"1401 EMMONS AVENUE BROOKLYN, NY 11235",40.583363,-73.953828
I.S. R002 George L. Egbert,"333 MIDLAND AVENUE STATEN ISLAND, NY 10306",40.57702,-74.100577
International HS at Lafayette,"2630 BENSON AVENUE BROOKLYN, NY 11214",40.593992,-73.985748
International School for Liberal Arts,"2780 RESERVOIR AVENUE BRONX, NY 10468",40.87068,-73.897591
Irwin Altman Middle School 172,"81-14 257 STREET QUEENS, NY 11004",40.741554,-73.712978
J.H.S. 008 Richard S. Grossley,"108-35 167 STREET QUEENS, NY 11433",40.697092,-73.786932
J.H.S. 050 John D. Wells,"183 SOUTH 3 STREET BROOKLYN, NY 11211",40.711685,-73.959952
J.H.S. 052 Inwood,"650 ACADEMY STREET MANHATTAN, NY 10034",40.865586,-73.92476
J.H.S. 054 Booker T. Washington,"103 WEST 107 STREET MANHATTAN, NY 10025",40.800467,-73.963283
J.H.S. 057 Whitelaw Reid,"125 STUYVESANT AVENUE BROOKLYN, NY 11221",40.691223,-73.933529
J.H.S. 062 Ditmas,"700 CORTELYOU ROAD BROOKLYN, NY 11218",40.638574,-73.97124
J.H.S. 078 Roy H. Mann,"1420 EAST 68 STREET BROOKLYN, NY 11234",40.620922,-73.912836
J.H.S. 098 Herman Ridder,"1619 BOSTON ROAD BRONX, NY 10460",40.836061,-73.890597
J.H.S. 104 Simon Baruch,"330 EAST 21 STREET MANHATTAN, NY 10010",40.735926,-73.980544
J.H.S. 123 James M. Kieran,"1025 MORRISON AVENUE BRONX, NY 10472",40.825007,-73.873767
J.H.S. 127 The Castle Hill,"1560 PURDY STREET BRONX, NY 10462",40.838132,-73.853406
J.H.S. 131 Albert Einstein,"885 BOLTON AVENUE BRONX, NY 10473",40.8235,-73.859806
J.H.S. 143 Eleanor Roosevelt,"511 WEST 182ND STREET MANHATTAN, NY 10033",40.849099,-73.931106
J.H.S. 144 Michelangelo,"2545 GUNTHER AVENUE BRONX, NY 10469",40.864196,-73.836304
J.H.S. 189 Daniel Carter Beard,"144-80 BARCLAY AVENUE QUEENS, NY 11355",40.760409,-73.818014
J.H.S. 201 The Dyker Heights,"8010 12 AVENUE BROOKLYN, NY 11228",40.595124,-73.97512
J.H.S. 202 Robert H. Goddard,"138-30 LAFAYETTE STREET QUEENS, NY 11417",40.670832,-73.845489
J.H.S. 210 Elizabeth Blackwell,"93-11 101 AVENUE QUEENS, NY 11416",40.683993,-73.8475
J.H.S. 218 James P. Sinnott,"370 FOUNTAIN AVENUE BROOKLYN, NY 11208",40.670685,-73.874446
J.H.S. 220 John J. Pershing,"4812 9TH AVENUE BROOKLYN, NY 11220",40.640773,-74.000808
J.H.S. 227 Edward B. Shallow,"6500 16 AVENUE BROOKLYN, NY 11204",40.595211,-73.974729
J.H.S. 234 Arthur W. Cunningham,"1875 EAST 17 STREET BROOKLYN, NY 11229",40.604348,-73.955318
J.H.S. 259 William Mckinley,"7305 FT HAMILTON PARKWAY BROOKLYN, NY 11228",40.626338,-74.015141
J.H.S. 278 Marine Park,"1925 STUART STREET BROOKLYN, NY 11229",40.606618,-73.938868
J.H.S. 291 Roland Hayes,"231 PALMETTO STREET BROOKLYN, NY 11221",40.6955,-73.915174
J.H.S. 292 Margaret S. Douglas,"301 VERMONT STREET BROOKLYN, NY 11207",40.671343,-73.893606
James Madison High School,"3787 BEDFORD AVENUE BROOKLYN, NY 11229",40.609881,-73.948215
James Weldon Johnson,"176 EAST 115 STREET MANHATTAN, NY 10029",40.797488,-73.941443
John Dewey High School,"50 AVENUE X BROOKLYN, NY 11223",40.588188,-73.981718
Jonas Bronck Academy,"400 EAST FORDHAM ROAD BRONX, NY 10458",40.860899,-73.891931
Life Sciences Secondary School,"320 EAST 96 STREET MANHATTAN, NY 10128",40.783406,-73.94585
Locke School of Arts and Engineering (The),"20 WEST 112 STREET MANHATTAN, NY 10026",40.79843,-73.949399
M.S. 061 Dr. Gladstone H. Atwell,"400 EMPIRE BOULEVARD BROOKLYN, NY 11225",40.663889,-73.948375
M.S. 113 Ronald Edmonds Learning Center,"300 ADELPHI STREET BROOKLYN, NY 11205",40.688487,-73.97112
M.S. 131,"100 HESTER STREET MANHATTAN, NY 10002",40.716455,-73.993533
M.S. 137 America's School of Heroes,"109-15 98 STREET QUEENS, NY 11417",40.67829,-73.839647
M.S. 158 Marie Curie,"46-35 OCEANIA STREET QUEENS, NY 11361",40.755866,-73.772465
M.S. 180 Dr. Daniel Hale Williams,"700 BAYCHESTER AVENUE BRONX, NY 10475",40.873204,-73.832179
M.S. 260 Clinton School Writers & Artists,"10 East 15th Street MANHATTAN, NY 10003",40.736259,-73.992362
M.S. 301 Paul L. Dunbar,"890 CAULDWELL AVENUE BRONX, NY 10456",40.822084,-73.90722
M.S. 302 Luisa Dessus Cruz,"681 KELLY STREET BRONX, NY 10455",40.815676,-73.90177
M.S.129 Academy for Independent Learning and Leadership,"2055 MAPES AVENUE BRONX, NY 10460",40.845682,-73.886532
MANHATTAN ACADEMY FOR ARTS & LANGUAGE,"111 EAST 33RD STREET MANHATTAN, NY 10016",40.746224,-73.980996
"Magnet School of Math, Science and Design Technology","511 7 AVENUE BROOKLYN, NY 11215",40.594703,-73.965808
Martin Van Buren High School,"230-17 HILLSIDE AVENUE QUEENS, NY 11427",40.733685,-73.738723
Middle College High School,"1186 CARROLL STREET BROOKLYN, NY 11225",40.667082,-73.951145
Middle School 322,"4600 BROADWAY MANHATTAN, NY 10040",40.861017,-73.93013
Middle School for Art and Philosophy,"1084 LENOX ROAD BROOKLYN, NY 11212",40.657957,-73.920276
Mott Hall Bronx High School,"1595 BATHGATE AVENUE BRONX, NY 10457",40.839288,-73.901601
Mott Hall High School,"6 EDGECOMBE AVENUE MANHATTAN, NY 10030",40.817386,-73.947448
New Design High School,"350 GRAND STREET MANHATTAN, NY 10002",40.717348,-73.989595
New Dorp High School,"465 NEW DORP LANE STATEN ISLAND, NY 10306",40.569578,-74.107377
"New Explorations into Science, Technology and Math High School","111 COLUMBIA STREET MANHATTAN, NY 10002",40.71914,-73.979371
New Millenium Business Acad. MS,"1000 TELLER AVENUE BRONX, NY 10456",40.827892,-73.914175
Origins High School,"3000 AVENUE X BROOKLYN, NY 11235",40.594005,-73.937395
P.S. /I.S. 384 Frances E. Carter,"242 COOPER STREET BROOKLYN, NY 11207",40.690113,-73.904894
P.S. 001 Alfred E. Smith,"8 HENRY STREET MANHATTAN, NY 10038",40.712661,-73.997517
P.S. 001 The Bergen,"309 47 STREET BROOKLYN, NY 11220",40.649091,-74.011833
P.S. 002 Alfred Zimberg,"75-10 21 AVENUE QUEENS, NY 11370",40.770195,-73.894005
P.S. 002 Meyer London,"122 HENRY STREET MANHATTAN, NY 10002",40.713167,-73.99135
P.S. 004 Duke Ellington,"500 WEST 160 STREET MANHATTAN, NY 10032",40.834847,-73.941204
P.S. 004 Maurice Wollin,"200 NEDRA LANE STATEN ISLAND, NY 10312",40.552373,-74.195516
P.S. 005 Dr. Ronald Mcnair,"820 HANCOCK STREET BROOKLYN, NY 11233",40.685546,-73.922603
P.S. 005 Ellen Lurie,"3703 TENTH AVENUE MANHATTAN, NY 10034",40.85892,-73.922428
P.S. 007 Abraham Lincoln,"858 JAMAICA AVENUE BROOKLYN, NY 11208",40.689594,-73.872989
P.S. 008 Issac Varian,"3010 BRIGGS AVENUE BRONX, NY 10458",40.872402,-73.883651
P.S. 008 Luis Belliard,"465 WEST 167 STREET MANHATTAN, NY 10032",40.839031,-73.936713
P.S. 009 Sarah Anderson,"100 WEST 84 STREET MANHATTAN, NY 10024",40.785287,-73.973745
P.S. 011 Highbridge,"1257 OGDEN AVENUE BRONX, NY 10452",40.839672,-73.925699
P.S. 011 William T. Harris,"320 WEST 21 STREET MANHATTAN, NY 10011",40.744466,-74.000772
P.S. 012 James B. Colgate,"42-00 72 STREET QUEENS, NY 11377",40.742363,-73.892978
P.S. 013 Clement C. Moore,"55-01 94 STREET QUEENS, NY 11373",40.737342,-73.868169
P.S. 013 Roberto Clemente,"557 PENNSYLVANIA AVENUE BROOKLYN, NY 11207",40.663642,-73.893547
P.S. 014 Fairview,"107-01 OTIS AVENUE QUEENS, NY 11368",40.740865,-73.854178
P.S. 015 Patrick F. Daly,"71 SULLIVAN STREET BROOKLYN, NY 11231",40.67711,-74.011445
P.S. 016 John J. Driscoll,"195 DANIEL LOW TERRACE STATEN ISLAND, NY 10301",40.639614,-74.079933
P.S. 017 Henry D. Woodworth,"208 NORTH 5 STREET BROOKLYN, NY 11211",40.715362,-73.956968
P.S. 018 Edward Bush,"101 MAUJER STREET BROOKLYN, NY 11206",40.71072,-73.946899
P.S. 018 John G. Whittier,"221 BROADWAY STATEN ISLAND, NY 10310",40.636836,-74.117346
P.S. 018 John Peter Zenger,"502 MORRIS AVENUE BRONX, NY 10451",40.816426,-73.92299
P.S. 019 Asher Levy,"185 1 AVENUE MANHATTAN, NY 10003",40.729735,-73.984018
P.S. 020 Port Richmond,"161 PARK AVENUE STATEN ISLAND, NY 10302",40.636739,-74.132576
P.S. 021 Crispus Attucks,"180 CHAUNCEY STREET BROOKLYN, NY 11233",40.680632,-73.926256
P.S. 021 Edward Hart,"147-36 26 AVENUE QUEENS, NY 11354",40.774352,-73.817933
P.S. 021 Philip H. Sheridan,"715 EAST 225 STREET BRONX, NY 10466",40.887664,-73.859729
P.S. 022 Graniteville Extension,"1860 FOREST AVENUE STATEN ISLAND, NY 10303",40.625168,-74.151187
P.S. 026 The Carteret School,"4108 VICTORY BOULEVARD STATEN ISLAND, NY 10314",40.591679,-74.190284
P.S. 028 Mount Hope,"1861 ANTHONY AVENUE BRONX, NY 10457",40.84829,-73.90355
P.S. 028 Wright Brothers,"475 WEST 155 STREET MANHATTAN, NY 10032",40.831546,-73.942404
P.S. 030 Westerleigh,"200 WARDWELL AVENUE STATEN ISLAND, NY 10314",40.618018,-74.132847
P.S. 031 Samuel F. Dupont,"75 MESEROLE AVENUE BROOKLYN, NY 11222",40.726753,-73.954039
P.S. 031 William T. Davis,"55 LAYTON AVENUE STATEN ISLAND, NY 10301",40.64174,-74.085515
P.S. 032 Belmont,"690 EAST 183 STREET BRONX, NY 10458",40.852013,-73.886056
P.S. 033 Timothy Dwight,"2424 JEROME AVENUE BRONX, NY 10468",40.861675,-73.901633
P.S. 036 Margaret Douglas,"123 MORNINGSIDE DRIVE MANHATTAN, NY 10027",40.810509,-73.957399
P.S. 036 Unionport,"1070 CASTLE HILL AVENUE BRONX, NY 10472",40.829418,-73.850258
P.S. 038 The Pacific,"450 PACIFIC STREET BROOKLYN, NY 11217",40.685094,-73.982632
P.S. 041 Francis White,"411 THATFORD AVENUE BROOKLYN, NY 11212",40.660349,-73.90725
P.S. 041 Greenwich Village,"116 WEST 11 STREET MANHATTAN, NY 10011",40.73556,-73.999014
P.S. 041 Gun Hill Road,"3352 OLINVILLE AVENUE BRONX, NY 10467",40.874514,-73.868021
P.S. 042 Benjamin Altman,"71 HESTER STREET MANHATTAN, NY 10002",40.715983,-73.99088
P.S. 042 Claremont,"1537 WASHINGTON AVENUE BRONX, NY 10457",40.83856,-73.903026
P.S. 044 Marcus Garvey,"432 MONROE STREET BROOKLYN, NY 11221",40.686421,-73.940983
P.S. 044 Thomas C. Brown,"80 MAPLE PARKWAY STATEN ISLAND, NY 10303",40.631621,-74.156757
P.S. 046 Alley Pond,"64-45 218 STREET QUEENS, NY 11364",40.745298,-73.758167
P.S. 046 Arthur Tappan,"2987 FREDERICK DOUGLASS BOULEVARD MANHATTAN, NY 10039",40.831491,-73.935885
P.S. 046 Edgar Allan Poe,"279 EAST 196 STREET BRONX, NY 10458",40.86695,-73.890627
P.S. 047 John Randolph,"1794 EAST 172 STREET BRONX, NY 10472",40.83274,-73.866996
P.S. 048 Mapleton,"6015 18 AVENUE BROOKLYN, NY 11204",40.595216,-73.974594
P.S. 048 William Wordsworth,"108-29 155 STREET QUEENS, NY 11433",40.69357,-73.796108
P.S. 049 Dorothy Bonawit Kole,"63-60 80th Street QUEENS, NY 11379",40.719518,-73.875034
P.S. 052 John C. Thompson,"450 BUEL AVENUE STATEN ISLAND, NY 10305",40.58247,-74.088403
P.S. 052 Sheepshead Bay,"2675 EAST 29 STREET BROOKLYN, NY 11235",40.587404,-73.940252
P.S. 053 Basheer Quisim,"360 EAST 168 STREET BRONX, NY 10456",40.832764,-73.911504
P.S. 053 Bay Terrace,"330 DURANT AVENUE STATEN ISLAND, NY 10308",40.552129,-74.137382
P.S. 054 Charles W. Leng,"1060 WILLOWBROOK ROAD STATEN ISLAND, NY 10314",40.603084,-74.137706
P.S. 055 Henry M. Boehm,"54 OSBORNE STREET STATEN ISLAND, NY 10312",40.536556,-74.163617
P.S. 056 Norwood Heights,"341 EAST 207 STREET BRONX, NY 10467",40.87526,-73.875041
P.S. 057 Crescent,"2111 CROTONA AVENUE BRONX, NY 10457",40.848646,-73.888836
P.S. 057 Hubert H. Humphrey,"140 PALMA DRIVE STATEN ISLAND, NY 10304",40.611392,-74.083375
P.S. 058,"459 EAST 176 STREET BRONX, NY 10457",40.846109,-73.898846
P.S. 059 The Community School of Technology,"2185 BATHGATE AVENUE BRONX, NY 10457",40.85306,-73.893421
P.S. 060 Alice Austen,"55 MERRILL AVENUE STATEN ISLAND, NY 10314",40.61038,-74.162688
P.S. 060 Woodhaven,"91-02 88 AVENUE QUEENS, NY 11421",40.691967,-73.852964
P.S. 062 Chester Park,"97-25 108 STREET QUEENS, NY 11419",40.688636,-73.836029
P.S. 062 Inocensio Casanova,"660 FOX STREET BRONX, NY 10455",40.813974,-73.900256
P.S. 063 Author's Academy,"1260 FRANKLIN AVENUE BRONX, NY 10456",40.831071,-73.902272
P.S. 064 Robert Simon,"600 EAST 6 STREET MANHATTAN, NY 10009",40.724233,-73.981387
P.S. 066 School of Higher Expectations,"1001 JENNINGS STREET BRONX, NY 10460",40.831216,-73.886725
P.S. 067 Charles A. Dorsey,"51 SAINT EDWARDS STREET BROOKLYN, NY 11205",40.695251,-73.978039
P.S. 067 Mohegan School,"2024 MOHEGAN AVENUE BRONX, NY 10460",40.844001,-73.884536
P.S. 069 Daniel D. Tompkins,"144 KEATING PLACE STATEN ISLAND, NY 10314",40.590978,-74.157467
P.S. 069 Jackson Heights,"77-02 37 AVENUE QUEENS, NY 11372",40.749102,-73.888502
P.S. 070 Max Schoenfeld,"1691 WEEKS AVENUE BRONX, NY 10457",40.844395,-73.907769
P.S. 071 Rose E. Scala,"3040 ROBERTS AVENUE BRONX, NY 10461",40.845672,-73.829743
P.S. 072 Dr. William Dorney,"2951 DEWEY AVENUE BRONX, NY 10465",40.822896,-73.818002
P.S. 075 Mayda Cortiella,"95 GROVE STREET BROOKLYN, NY 11221",40.693102,-73.921042
P.S. 076 A. Philip Randolph,"220 WEST 121 STREET MANHATTAN, NY 10027",40.806711,-73.951244
P.S. 076 The Bennington School,"900 ADEE AVENUE BRONX, NY 10469",40.868653,-73.861171
P.S. 078 Anne Hutchinson,"1400 NEEDHAM AVENUE BRONX, NY 10469",40.878652,-73.85071
P.S. 081 Thaddeus Stevens,"990 DEKALB AVENUE BROOKLYN, NY 11221",40.6931,-73.935299
P.S. 083 Donald Hertz,"1840 BOGART AVENUE BRONX, NY 10462",40.848626,-73.858675
P.S. 083 Luis Munoz Rivera,"219 EAST 109 STREET MANHATTAN, NY 10029",40.793089,-73.942005
P.S. 084 Jose De Diego,"250 BERRY STREET BROOKLYN, NY 11211",40.714841,-73.96313
P.S. 085 Judge Charles Vallone,"23-70 31 STREET QUEENS, NY 11105",40.773009,-73.914843
P.S. 086 Kingsbridge Heights,"2756 RESERVOIR AVENUE BRONX, NY 10468",40.870024,-73.898207
P.S. 086 The Irvington,"220 IRVING AVENUE BROOKLYN, NY 11237",40.700748,-73.91766
P.S. 089 Bronx,"980 MACE AVENUE BRONX, NY 10469",40.862848,-73.859238
P.S. 091 Bronx,"2170 AQUEDUCT AVENUE BRONX, NY 10453",40.857453,-73.90844
P.S. 091 The Albany Avenue School,"532 ALBANY AVENUE BROOKLYN, NY 11203",40.661837,-73.940141
P.S. 092 Adrian Hegeman,"601 PARKSIDE AVENUE BROOKLYN, NY 11226",40.656129,-73.954114
P.S. 093 Albert G. Oliver,"1535 STORY AVENUE BRONX, NY 10473",40.82197,-73.87701
P.S. 094 The Henry Longfellow,"5010 6 AVENUE BROOKLYN, NY 11220",40.618856,-73.926433
P.S. 095 Sheila Mencher,"3961 HILLMAN AVENUE BRONX, NY 10463",40.882946,-73.891441
P.S. 095 The Gravesend,"345 VAN SICKLEN STREET BROOKLYN, NY 11223",40.595588,-73.975038
P.S. 096 Joseph Lanzetta,"216 EAST 120 STREET MANHATTAN, NY 10035",40.799919,-73.937027
P.S. 097 Bronx,"1375 MACE AVENUE BRONX, NY 10469",40.863072,-73.846947
P.S. 097 Forest Park,"85-52 85 STREET QUEENS, NY 11421",40.694278,-73.859781
P.S. 098 Shorac Kappock,"512 WEST 212 STREET MANHATTAN, NY 10034",40.86793,-73.917668
P.S. 099 Isaac Asimov,"1120 EAST 10 STREET BROOKLYN, NY 11230",40.621562,-73.965758
P.S. 100 Glen Morris,"111-11 118 STREET QUEENS, NY 11420",40.67991,-73.821875
P.S. 100 Isaac Clason,"800 TAYLOR AVENUE BRONX, NY 10473",40.82186,-73.862933
P.S. 100 The Coney Island School,"2951 WEST 3 STREET BROOKLYN, NY 11224",40.577592,-73.971101
P.S. 101 The Verrazano,"2360 BENSON AVENUE BROOKLYN, NY 11214",40.597618,-73.991725
P.S. 102 The Bayview,"211 72 STREET BROOKLYN, NY 11209",40.63412,-74.028992
P.S. 103 Hector Fontanez,"4125 CARPENTER AVENUE BRONX, NY 10466",40.892245,-73.861622
P.S. 104 The Bays Water,"26-01 MOTT AVENUE QUEENS, NY 11691",40.6082,-73.764899
P.S. 105 Sen Abraham Bernstein,"725 BRADY AVENUE BRONX, NY 10462",40.852585,-73.866448
P.S. 105 The Blythebourne,"1031 59 STREET BROOKLYN, NY 11219",40.633114,-74.003671
P.S. 106 Edward Everett Hale,"1328 PUTNAM AVENUE BROOKLYN, NY 11221",40.693885,-73.912909
P.S. 107 Thomas A Dooley,"167-02 45 AVENUE QUEENS, NY 11358",40.755816,-73.799423
P.S. 107,"1695 SEWARD AVENUE BRONX, NY 10473",40.818661,-73.868441
P.S. 108 Assemblyman Angelo Del Toro Educational Complex,"1615 MADISON AVENUE MANHATTAN, NY 10029",40.795154,-73.948165
P.S. 108 Sal Abbracciamento,"200 LINWOOD STREET BROOKLYN, NY 11208",40.681298,-73.884185
P.S. 109 Sedgwick,"1771 POPHAM AVENUE BRONX, NY 10453",40.85153,-73.918631
P.S. 11 Thomas Dongan School,"51 JEFFERSON STREET STATEN ISLAND, NY 10304",40.590678,-74.09785
P.S. 110 Theodore Schoenfeld,"580 CROTONA PARK SOUTH BRONX, NY 10456",40.835096,-73.900477
P.S. 111 Adolph S. Ochs,"440 WEST 53 STREET MANHATTAN, NY 10019",40.766005,-73.989356
P.S. 111 Jacob Blackwell,"37-15 13 STREET QUEENS, NY 11101",40.7586,-73.939373
P.S. 111 Seton Falls,"3740 BAYCHESTER AVENUE BRONX, NY 10466",40.884555,-73.840005
P.S. 112 Bronxwood,"1925 SCHIEFFELIN AVENUE BRONX, NY 10466",40.884875,-73.843676
P.S. 112 Jose Celso Barbosa,"535 EAST 119 STREET MANHATTAN, NY 10035",40.796557,-73.930451
P.S. 115 Alexander Humboldt,"586 WEST 177 STREET MANHATTAN, NY 10033",40.846436,-73.935199
P.S. 115 Daniel Mucatel School,"1500 EAST 92 STREET BROOKLYN, NY 11236",40.634816,-73.8974
P.S. 117 J. Keld / Briarwood School,"85-15 143 STREET QUEENS, NY 11435",40.710014,-73.813219
P.S. 119 Amersfort,"3829 AVENUE K BROOKLYN, NY 11210",40.625835,-73.938711
P.S. 119,"1075 PUGSLEY AVENUE BRONX, NY 10472",40.828674,-73.856863
P.S. 120 Carlos Tapia,"18 BEAVER STREET BROOKLYN, NY 11206",40.700512,-73.937854
P.S. 120 Queens,"58-01 136 STREET QUEENS, NY 11355",40.745233,-73.829166
P.S. 122 Mamie Fay,"21-21 DITMARS BOULEVARD QUEENS, NY 11105",40.780254,-73.916121
P.S. 123 Mahalia Jackson,"301 WEST 140 STREET MANHATTAN, NY 10030",40.819962,-73.944664
P.S. 123 Suydam,"100 IRVING AVENUE BROOKLYN, NY 11237",40.703905,-73.922575
P.S. 124 Silas B. Dutcher,"515 4 AVENUE BROOKLYN, NY 11215",40.594644,-73.965672
P.S. 126 Dr Marjorie H Dunbar,"175 WEST 166 STREET BRONX, NY 10452",40.835952,-73.928391
P.S. 126 Jacob August Riis,"80 CATHERINE STREET MANHATTAN, NY 10038",40.710344,-73.996704
P.S. 127 Mckinley Park,"7805 7 AVENUE BROOKLYN, NY 11228",40.616695,-74.013047
P.S. 128 Bensonhurst,"2075 84 STREET BROOKLYN, NY 11214",40.604838,-73.99527
P.S. 130 Hernando De Soto,"143 BAXTER STREET MANHATTAN, NY 10013",40.718738,-73.998444
P.S. 130 The Parkside,"70 OCEAN PARKWAY BROOKLYN, NY 11218",40.648443,-73.975541
P.S. 131 Brooklyn,"4305 FT HAMILTON PARKWAY BROOKLYN, NY 11219",40.640838,-73.993415
P.S. 133 Fred R Moore,"2121 5 AVENUE MANHATTAN, NY 10037",40.809857,-73.939498
P.S. 134 George F. Bristow,"1330 BRISTOW STREET BRONX, NY 10459",40.831478,-73.894657
P.S. 134 Hollis,"203-02 109 AVENUE QUEENS, NY 11412",40.707883,-73.754899
P.S. 135 Sheldon A. Brookner,"5811 DITMAS AVENUE BROOKLYN, NY 11203",40.643855,-73.921472
P.S. 135 Sheldon A. Brookner,"684 LINDEN BOULEVARD BROOKLYN, NY 11203",40.653418,-73.932977
P.S. 138 Brooklyn,"760 PROSPECT PLACE BROOKLYN, NY 11216",40.674237,-73.951323
P.S. 139 Alexine A. Fenty,"330 RUGBY ROAD BROOKLYN, NY 11226",40.641073,-73.96558
P.S. 142 Amalia Castro,"100 ATTORNEY STREET MANHATTAN, NY 10002",40.718507,-73.984216
P.S. 147 Isaac Remsen,"325 BUSHWICK AVENUE BROOKLYN, NY 11206",40.704772,-73.939006
P.S. 148 Queens,"89-02 32 AVENUE QUEENS, NY 11369",40.758188,-73.87875
P.S. 149 Christa Mcauliffe,"93-11 34 AVENUE QUEENS, NY 11372",40.755089,-73.874228
P.S. 149 Sojourner Truth,"41 WEST 117 STREET MANHATTAN, NY 10026",40.802436,-73.948291
P.S. 150 Charles James Fox,"920 EAST 167 STREET BRONX, NY 10459",40.826198,-73.894273
P.S. 150 Christopher,"364 SACKMAN STREET BROOKLYN, NY 11212",40.668524,-73.904734
P.S. 150 Queens,"40-01 43 AVENUE QUEENS, NY 11104",40.745689,-73.923378
P.S. 151 Lyndon B. Johnson,"763 KNICKERBOCKER AVENUE BROOKLYN, NY 11207",40.693303,-73.908362
P.S. 152 Dyckman Valley,"93 NAGLE AVENUE MANHATTAN, NY 10040",40.860195,-73.927842
P.S. 154 Harriet Tubman,"250 WEST 127 STREET MANHATTAN, NY 10027",40.81081,-73.948985
P.S. 157 Benjamin Franklin,"850 KENT AVENUE BROOKLYN, NY 11205",40.695276,-73.95966
P.S. 158 Warwick,"400 ASHFORD STREET BROOKLYN, NY 11207",40.672561,-73.884926
P.S. 159 Isaac Pitkin,"2781 PITKIN AVENUE BROOKLYN, NY 11208",40.675922,-73.869655
P.S. 160 Walt Disney,"4140 HUTCHINSON RIVER PKWAY EA BRONX, NY 10475",40.864392,-73.824241
P.S. 160,"1057 52ND STREET BROOKLYN, NY 11219",40.636604,-73.999027
P.S. 161 Pedro Albizu Campos,"499 WEST 133 STREET MANHATTAN, NY 10027",40.817503,-73.952611
P.S. 161 The Crown,"330 CROWN STREET BROOKLYN, NY 11225",40.666038,-73.949215
P.S. 163 Alfred E. Smith,"163 WEST 97 STREET MANHATTAN, NY 10025",40.794559,-73.968757
P.S. 163 Arthur A. Schomburg,"2075 WEBSTER AVENUE BRONX, NY 10457",40.851621,-73.898776
P.S. 164 Caesar Rodney,"4211 14 AVENUE BROOKLYN, NY 11219",40.59524,-73.975025
P.S. 165 Edith K. Bergtraum,"70-35 150 STREET QUEENS, NY 11367",40.729545,-73.818098
P.S. 166 Henry Gradstein,"33-09 35 AVENUE QUEENS, NY 11106",40.757347,-73.926473
P.S. 169 Bay Terrace,"18-25 212 STREET QUEENS, NY 11360",40.782319,-73.778856
P.S. 169 Sunset Park,"4305 7 AVENUE BROOKLYN, NY 11232",40.652547,-74.013083
P.S. 170,"1598 TOWNSEND AVENUE BRONX, NY 10452",40.844443,-73.913383
P.S. 172 Beacon School of Excellence,"825 4 AVENUE BROOKLYN, NY 11232",40.593833,-73.96135
P.S. 173 Fresh Meadows,"174-10 67 AVENUE QUEENS, NY 11365",40.734307,-73.795257
P.S. 175 City Island,"200 CITY ISLAND AVENUE BRONX, NY 10464",40.843835,-73.784215
P.S. 175 The Lynn Gross Discovery School,"64-35 102 STREET QUEENS, NY 11374",40.730746,-73.852886
P.S. 176 Cambria Heights,"120-45 235 STREET QUEENS, NY 11411",40.685329,-73.72988
P.S. 176 Ovington,"1225 69 STREET BROOKLYN, NY 11219",40.62483,-74.005582
P.S. 177 The Marlboro,"346 AVENUE P BROOKLYN, NY 11204",40.608456,-73.974497
P.S. 178 - Dr. Selman Waksman,"850 BAYCHESTER AVENUE BRONX, NY 10475",40.875133,-73.83334
P.S. 178 Saint Clair Mckelway,"2163 DEAN STREET BROOKLYN, NY 11233",40.675132,-73.915351
P.S. 179 Kensington,"202 AVENUE C BROOKLYN, NY 11218",40.640327,-73.977385
P.S. 183 Dr. Richard R. Green,"2-45 BEACH 79 STREET QUEENS, NY 11693",40.589833,-73.805526
P.S. 184 Newport,"273 NEWPORT STREET BROOKLYN, NY 11212",40.660095,-73.904914
P.S. 184m Shuang Wen,"327 CHERRY STREET MANHATTAN, NY 10002",40.711499,-73.98585
P.S. 185 Walter Kassenbrock,"8601 RIDGE BOULEVARD BROOKLYN, NY 11209",40.623667,-74.033688
P.S. 186 Dr. Irving A Gladstone,"7601 19 AVENUE BROOKLYN, NY 11214",40.600514,-73.985273
P.S. 189 Lincoln Terrace,"1100 EAST NEW YORK AVENUE BROOKLYN, NY 11212",40.665523,-73.925768
P.S. 189,"2580 AMSTERDAM AVENUE MANHATTAN, NY 10040",40.853098,-73.92756
P.S. 191 Paul Robeson,"1600 PARK PLACE BROOKLYN, NY 11233",40.671882,-73.924384
P.S. 192 Jacob H. Schiff,"500 WEST 138 STREET MANHATTAN, NY 10031",40.821417,-73.95252
P.S. 193 Gil Hodges,"2515 AVENUE L BROOKLYN, NY 11210",40.621704,-73.950247
P.S. 194 Countee Cullen,"244 WEST 144 STREET MANHATTAN, NY 10030",40.821325,-73.940736
P.S. 194 Raoul Wallenberg,"3117 AVENUE W BROOKLYN, NY 11229",40.59715,-73.934016
P.S. 196 Ten Eyck,"207 BUSHWICK AVENUE BROOKLYN, NY 11206",40.708762,-73.939802
P.S. 197 John B. Russwurm,"2230 5 AVENUE MANHATTAN, NY 10037",40.813177,-73.937598
P.S. 198 Brooklyn,"4105 FARRAGUT ROAD BROOKLYN, NY 11210",40.637172,-73.936886
P.S. 199X - The Shakespeare School,"1449 SHAKESPEARE AVENUE BRONX, NY 10452",40.843371,-73.920447
P.S. 200 Benson School,"1940 BENSON AVENUE BROOKLYN, NY 11214",40.603019,-74.001508
P.S. 202 Ernest S. Jenkyns,"982 HEGEMAN AVENUE BROOKLYN, NY 11208",40.666256,-73.876405
P.S. 203 The School for Future Leaders,"5101 AVENUE M BROOKLYN, NY 11234",40.621659,-73.925671
P.S. 204 Vince Lombardi,"8101 15 AVENUE BROOKLYN, NY 11228",40.600502,-73.985378
P.S. 206 Joseph F Lamb,"2200 GRAVESEND NECK ROAD BROOKLYN, NY 11229",40.597291,-73.948839
P.S. 207 Elizabeth G. Leary,"3874 FLATLANDS AVENUE BROOKLYN, NY 11234",40.620357,-73.93635
P.S. 207 Elizabeth G. Leary,"4011 FILLMORE AVENUE BROOKLYN, NY 11234",40.613649,-73.93011
P.S. 207,"3030 GODWIN TERRACE BRONX, NY 10463",40.878371,-73.906388
P.S. 208 Elsa Ebeling,"4801 AVENUE D BROOKLYN, NY 11203",40.642271,-73.930632
P.S. 209 Margaret Mead,"2609 EAST 7 STREET BROOKLYN, NY 11235",40.586711,-73.961723
P.S. 21 Margaret Emery-Elm Park,"168 HOOKER PLACE STATEN ISLAND, NY 10303",40.631386,-74.144699
P.S. 213 New Lots,"580 HEGEMAN AVENUE BROOKLYN, NY 11207",40.660317,-73.890315
P.S. 214,"1970 WEST FARMS ROAD BRONX, NY 10460",40.839183,-73.880281
P.S. 215 Morris H. Weiss,"415 AVENUE S BROOKLYN, NY 11223",40.60229,-73.970084
P.S. 216 Arturo Toscanini,"350 AVENUE X BROOKLYN, NY 11223",40.590372,-73.969733
P.S. 217 Colonel David Marcus School,"1100 NEWKIRK AVENUE BROOKLYN, NY 11230",40.633803,-73.966375
P.S. 219 Kennedy-King,"1060 CLARKSON AVENUE BROOKLYN, NY 11212",40.65919,-73.922657
P.S. 223 Lyndon B. Johnson,"125-20 SUTPHIN BOULEVARD QUEENS, NY 11434",40.674623,-73.789914
P.S. 230 Doris L. Cohen,"1 ALBEMARLE ROAD BROOKLYN, NY 11218",40.64526,-73.980424
P.S. 232 Lindenwood,"153-23 83 STREET QUEENS, NY 11414",40.66585,-73.851027
P.S. 234,"30-15 29 STREET QUEENS, NY 11102",40.767032,-73.923337
P.S. 236 Mill Basin,"6302 AVENUE U BROOKLYN, NY 11234",40.615918,-73.912727
P.S. 238 Anne Sullivan,"1633 EAST 8 STREET BROOKLYN, NY 11223",40.608664,-73.964854
P.S. 242 Leonard P. Stavisky Early Childhood School,"29-66 137 STREET QUEENS, NY 11354",40.769796,-73.831753
P.S. 244 Richard R. Green,"5404 TILDEN AVENUE BROOKLYN, NY 11203",40.648273,-73.926079
P.S. 245,"249 EAST 17TH STREET BROOKLYN, NY 11226",40.644877,-73.963025
P.S. 246 Poe Center,"2641 GRAND CONCOURSE BRONX, NY 10468",40.86585,-73.895084
P.S. 249 The Caton,"18 MARLBOROUGH ROAD BROOKLYN, NY 11226",40.649646,-73.966191
P.S. 250 George H. Lindsay,"108 MONTROSE AVENUE BROOKLYN, NY 11206",40.706957,-73.945434
P.S. 253,"601 OCEANVIEW AVENUE BROOKLYN, NY 11235",40.584455,-73.948402
P.S. 254 - The Rosa Parks School,"84-40 101 STREET QUEENS, NY 11418",40.69711,-73.847814
P.S. 256 Benjamin Banneker,"114 KOSCIUSZKO STREET BROOKLYN, NY 11216",40.690671,-73.949823
P.S. 264 BAY RIDGE ELEMENTARY SCHOOL FOR THE ARTS,"371 89th Street BROOKLYN, NY 11209",40.620938,-74.029681
P.S. 272 Curtis Estabrook,"101-24 SEAVIEW AVENUE BROOKLYN, NY 11236",40.627369,-73.899682
P.S. 277 Gerritsen Beach,"2529 GERRITSEN AVENUE BROOKLYN, NY 11229",40.596296,-73.928923
P.S. 28 - The Thomas Emanuel Early Childhood Center,"109-10 47 AVENUE QUEENS, NY 11368",40.747128,-73.854379
P.S. 288 The Shirley Tanyhill,"2950 WEST 25 STREET BROOKLYN, NY 11224",40.574296,-73.992094
P.S. 290 Juan Morel Campos,"135 SCHENCK AVENUE BROOKLYN, NY 11207",40.678128,-73.889689
P.S. 295,"330 18 STREET BROOKLYN, NY 11215",40.66113,-73.988815
P.S. 297 Abraham Stockton,"700 PARK AVENUE BROOKLYN, NY 11206",40.697634,-73.947722
P.S. 298 Dr. Betty Shabazz,"85 WATKINS STREET BROOKLYN, NY 11212",40.670847,-73.908015
P.S. 3 Raul Julia Micro Society,"2100 LAFONTAINE AVENUE BRONX, NY 10457",40.850249,-73.891953
P.S. 306 Ethan Allen,"970 VERMONT STREET BROOKLYN, NY 11207",40.655454,-73.886363
P.S. 306,"40 WEST TREMONT AVENUE BRONX, NY 10453",40.851555,-73.911281
P.S. 307 Daniel Hale Williams,"209 YORK STREET BROOKLYN, NY 11201",40.701506,-73.981672
P.S. 308 Clara Cardwell,"616 QUINCY STREET BROOKLYN, NY 11221",40.688552,-73.935411
P.S. 309 The George E. Wibecan Preparatory Academy,"794 MONROE STREET BROOKLYN, NY 11221",40.688337,-73.924472
P.S. 312 Bergen Beach,"7103 AVENUE T BROOKLYN, NY 11234",40.621771,-73.908814
P.S. 326,"1800 UTICA AVENUE BROOKLYN, NY 11234",40.628566,-73.928248
P.S. 327 Dr. Rose B. English,"111 BRISTOL STREET BROOKLYN, NY 11212",40.66798,-73.912085
P.S. 328 Phyllis Wheatley,"330 ALABAMA AVENUE BROOKLYN, NY 11207",40.667799,-73.897869
P.S. 330,"110-08 NORTHERN BOULEVARD QUEENS, NY 11368",40.75773,-73.859052
P.S. 335 Granville T. Woods,"130 ROCHESTER AVENUE BROOKLYN, NY 11213",40.674521,-73.92798
P.S. 346 Abe Stark,"1400 PENNSYLVANIA AVENUE BROOKLYN, NY 11239",40.647065,-73.881451
P.S. 361 East Flatbush Early Childhood School,"1957 NOSTRAND AVENUE BROOKLYN, NY 11210",40.637746,-73.947975
P.S. 375 Jackie Robinson School,"46 MCKEEVER PLACE BROOKLYN, NY 11225",40.665039,-73.95908
P.S. 376,"194 HARMAN STREET BROOKLYN, NY 11237",40.698349,-73.920242
P.S. 377 Alejandrina B. De Gautier,"200 WOODBINE STREET BROOKLYN, NY 11221",40.693882,-73.915155
P.S. 38 Roberto Clemente,"232 EAST 103 STREET MANHATTAN, NY 10029",40.788899,-73.9446
P.S. 380 John Wayne Elementary,"370 MARCY AVENUE BROOKLYN, NY 11206",40.702285,-73.953026
P.S. 39 Francis J. Murphy Jr.,"99 MACFARLAND AVENUE STATEN ISLAND, NY 10305",40.597797,-74.07008
P.S. 398 Walter Weaver,"60 EAST 94 STREET BROOKLYN, NY 11212",40.664029,-73.92768
P.S. 398,"69-01 34TH AVENUE QUEENS, NY 11377",40.752761,-73.896707
P.S. 399 Stanley Eugene Clark,"2707 ALBEMARLE ROAD BROOKLYN, NY 11226",40.648149,-73.951786
P.S. 58 - School of Heroes,"72-24 GRAND AVENUE QUEENS, NY 11378",40.728785,-73.890322
P.S. 595,"700 EAST 179 STREET BRONX, NY 10457",40.846335,-73.889323
P.S. 748 BROOKLYN SCHOOL FOR GLOBAL SCHOLARS,"1664 BENSON AVENUE BROOKLYN, NY 11214",40.606994,-74.00719
P.S. 90 Edna Cohen School,"2840 WEST 12 STREET BROOKLYN, NY 11224",40.578137,-73.979835
P.S. 971,"6214 4TH AVENUE BROOKLYN, NY 11220",40.639467,-74.020162
P.S. K225 - The Eileen E. Zaglin,"1075 OCEAN VIEW AVENUE BROOKLYN, NY 11235",40.57981,-73.95601
P.S. X014 Senator John Calandra,"3047 BRUCKNER BOULEVARD BRONX, NY 10461",40.835741,-73.825906
P.S. X088 - S. Silverstein Little Sparrow School,"1340 SHERIDAN AVENUE BRONX, NY 10456",40.837076,-73.91358
P.S. X114 - Luis Llorens Torres Schools,"1155 CROMWELL AVENUE BRONX, NY 10452",40.835151,-73.923037
P.S. X140 The Eagle School,"916 EAGLE AVENUE BRONX, NY 10456",40.823392,-73.907801
P.S. X811,"1434 LONGFELLOW AVENUE BRONX, NY 10459",40.830774,-73.887316
P.S./ M.S.138 Sunrise,"251-11 WELLER AVENUE QUEENS, NY 11422",40.659553,-73.734727
P.S./I.S. 104 The Fort Hamilton School,"9115 5 AVENUE BROOKLYN, NY 11209",40.622459,-74.028749
P.S./I.S. 217 Roosevelt Island,"645 MAIN STREET MANHATTAN, NY 10044",40.763886,-73.948118
P.S./I.S. 218 Rafael Hernandez Dual Language Magnet School,"1220 GERARD AVENUE BRONX, NY 10452",40.835818,-73.919915
P.S./M.S. 004 Crotona Park West,"1717 FULTON AVENUE BRONX, NY 10457",40.841752,-73.897809
PS 007 Louis F. Simeone Annex,"76-05 51 AVENUE QUEENS, NY 11373",40.736944,-73.887331
PS 112 Lefferts Park Annex,"7301 15TH AVENUE BROOKLYN, NY 11228",40.618573,-74.001829
PS 226 Annex,"1910 SEDGWICK AVENUE BRONX, NY 10453",40.854992,-73.916608
PS 235 Janice Marie Knight School Annex,"10001 FLATLANDS AVENUE BROOKLYN, NY 11236",40.645582,-73.898157
PS 354,"126-10 BEDELL STREET QUEENS, NY 11434",40.679868,-73.774233
PS 5 Port Morris,"564 JACKSON AVENUE BRONX, NY 10455",40.813572,-73.908818
PS 503: The School of Discovery,"330 59 STREET BROOKLYN, NY 11220",40.642039,-74.019036
PS 78,"100 TOMPKINS AVENUE STATEN ISLAND, NY 10304",40.622227,-74.079566
PS/MS 194,"2365 WATERBURY AVENUE BRONX, NY 10462",40.834979,-73.84652
Paula Hedbavny School,"421 W 219TH ST MANHATTAN, NY 10034",40.871497,-73.91253
Performing Arts and Technology High School,"400 PENNSYLVANIA AVENUE BROOKLYN, NY 11207",40.666909,-73.894808
Port Richmond High School,"85 ST JOSEPHS AVENUE STATEN ISLAND, NY 10302",40.634494,-74.14206
RED HOOK NEIGHBORHOOD SCHOOL,"27 HUNTINGTON STREET BROOKLYN, NY 11231",40.677644,-74.005113
Ralph A. Fabrizio School,"619 72ND STREET BROOKLYN, NY 11209",40.630194,-74.018849
Richmond Hill High School,"89-30 114 STREET QUEENS, NY 11418",40.695123,-73.833453
River East Elementary,"2351 FIRST AVENUE MANHATTAN, NY 10035",40.799182,-73.933396
Riverdale / Kingsbridge Academy (Middle School / High School 141),"660 WEST 237 STREET BRONX, NY 10463",40.888211,-73.914363
School for Excellence,"1110 BOSTON ROAD BRONX, NY 10456",40.827262,-73.904544
School for International Studies,"284 BALTIC STREET BROOKLYN, NY 11201",40.685317,-73.993335
School of the Future High School,"127 EAST 22 STREET MANHATTAN, NY 10010",40.739025,-73.985416
South Bronx Preparatory: A College Board School,"360 EAST 145 STREET BRONX, NY 10454",40.81366,-73.920295
Stephen T. Mather Building Arts Craf,"439 WEST 49TH STREET MANHATTAN, NY 10019",40.763581,-73.99085
Stuyvesant High School,"345 CHAMBERS STREET MANHATTAN, NY 10282",40.717771,-74.013868
Tag Young Scholars,"240 EAST 109 STREET MANHATTAN, NY 10029",40.7926,-73.941538
Teachers College Community School,"168 MORNINGSIDE AVENUE MANHATTAN, NY 10027",40.812492,-73.953422
The Active Learning Elementary School,"137-20 FRANKLIN AVENUE QUEENS, NY 11355",40.754666,-73.826292
The Angelo Patri Middle School,"2225 WEBSTER AVENUE BRONX, NY 10457",40.854777,-73.89675
The Bellaire School,"207-11 89 AVENUE QUEENS, NY 11427",40.720552,-73.757168
The Christa McAuliffe School\I.S. 187,"1171 65 STREET BROOKLYN, NY 11219",40.627778,-74.004043
The Highbridge Green School,"200 West 167th Street BRONX, NY 10452",40.838209,-73.928034
The Hunts Point School,"730 BRYANT AVENUE BRONX, NY 10474",40.815457,-73.885562
The Lexington Academy,"131 EAST 104 STREET MANHATTAN, NY 10029",40.791213,-73.947581
The Longwood Academy of Discovery,"888 REV J A POLITE AVE BRONX, NY 10459",40.825629,-73.893605
The Matilda Avenue School,"4520 MATILDA AVENUE BRONX, NY 10470",40.901594,-73.854107
The Michael J. Petrides School,"715 OCEAN TERRACE STATEN ISLAND, NY 10301",40.608326,-74.102619
The SEEALL Academy,"5601 16 AVENUE BROOKLYN, NY 11204",40.595211,-73.974729
The STAR Academy - P.S.63,"121 EAST 3 STREET MANHATTAN, NY 10009",40.724144,-73.9862
The School of Creativity and Innovation,"736 48TH STREET BROOKLYN, NY 11220",40.643039,-74.004094
The Walton Avenue School,"1425 WALTON AVENUE BRONX, NY 10452",40.840293,-73.91561
Thomas A. Edison Career and Technical Education High School,"165-65 84 AVENUE QUEENS, NY 11432",40.715946,-73.799125
Thurgood Marshall Academy Lower School,"276 WEST 151ST STREET MANHATTAN, NY 10039",40.825926,-73.937758
Thurgood Marshall Academy for Learning and Social,"200-214 WEST 135TH STREET MANHATTAN, NY 10030",40.815355,-73.944238
Urban Academy Laboratory High School,"317 EAST 67 STREET MANHATTAN, NY 10065",40.765335,-73.959738
Vista Academy,"350 LINWOOD STREET BROOKLYN, NY 11208",40.677139,-73.883618
Wadleigh Secondary School for the Performing & Vis,"215 WEST 114 STREET MANHATTAN, NY 10026",40.802284,-73.95408
William Cullen Bryant High School,"48-10 31 AVENUE QUEENS, NY 11103",40.757962,-73.910495
William E. Grady Career and Technical Education High School,"25 BRIGHTON 4TH ROAD BROOKLYN, NY 11235",40.582723,-73.963353
Williamsburg High School for Art and Technology,"223 GRAHAM AVENUE BROOKLYN, NY 11206",40.709815,-73.943911
Young Voices Academy Of The Bronx,"800 LYDIG AVENUE BRONX, NY 10462",40.854327,-73.863659
